ONEWEB-0290             
1 49080U 21075F   23059.52859150  .00001192  00000+0  30288-2 0  9995
2 49080  87.9071 245.1896 0001709 109.4887 250.6430 13.17828588 74972
ONEWEB-0290             
1 49080U 21075F   23059.90825652 -.00002916  00000+0 -75288-2 0  9993
2 49080  87.9071 245.1142 0001485 105.3871 254.7425 13.17797511 75022
ONEWEB-0290             
1 49080U 21075F   23060.06010871 -.00002585  00000+0 -66784-2 0  9994
2 49080  87.9075 245.0836 0001424 106.9854 253.1434 13.17799617 76029
ONEWEB-0290             
1 49080U 21075F   23060.74343712 -.00000222  00000+0 -60292-3 0  9997
2 49080  87.9070 244.9477 0001376 108.0509 252.0772 13.17814889 76111
ONEWEB-0290             
1 49080U 21075F   23060.89528319  .00000691  00000+0  17424-2 0  9997
2 49080  87.9072 244.9176 0001549 105.8119 254.3184 13.17821372 75153
ONEWEB-0290             
1 49080U 21075F   23061.04713592  .00000705  00000+0  17786-2 0  9991
2 49080  87.9074 244.8870 0001539 107.4110 252.7190 13.17821271 76151
ONEWEB-0290             
1 49080U 21075F   23061.73047217  .00000520  00000+0  13031-2 0  9995
2 49080  87.9075 244.7511 0001600 105.1328 254.9981 13.17823492 75268
ONEWEB-0290             
1 49080U 21075F   23062.48973820  .00002749  00000+0  70279-2 0  9998
2 49080  87.9074 244.5996 0001578 106.3246 253.8059 13.17814726 75363
ONEWEB-0290             
1 49080U 21075F   23062.48973820  .00002749  00000+0  70279-2 0  9998
2 49080  87.9074 244.5996 0001578 106.3246 253.8059 13.17814726 76342
ONEWEB-0290             
1 49080U 21075F   23062.86935685 -.00007059  00000+0 -18170-1 0  9999
2 49080  87.9074 244.5241 0001457 121.6734 238.4540 13.17861613 75411
